{
  "type": "FeatureCollection",
  "features": [
    {
      "type": "Feature",
      "properties": {
        "norad_id": 46435,
        "name": "IRIDIUM 33 DEB",
        "group": "iridium-33-debris",
        "lat": 33.00705691375208,
        "lon": -165.0109915747292,
        "alt_km": 869.5386979932991,
        "timestamp": "2025-12-15T22:44:29.315398+00:00",
        "meta_object_name": "IRIDIUM 33 DEB",
        "meta_object_id": "1997-051ABN",
        "meta_epoch": "2025-12-13T20:22:29.882208",
        "meta_mean_motion": 14.32399442,
        "meta_eccentricity": 0.0208315,
        "meta_inclination": 86.2839,
        "meta_ra_of_asc_node": 193.4722,
        "meta_arg_of_pericenter": 272.7642,
        "meta_mean_anomaly": 103.0816,
        "meta_ephemeris_type": 0,
        "meta_classification_type": "U",
        "meta_norad_cat_id": 46435,
        "meta_element_set_no": 999,
        "meta_rev_at_epoch": 7932,
        "meta_bstar": 0.009141333,
        "meta_mean_motion_dot": 0.00031559,
        "meta_mean_motion_ddot": 0,
        "tle_line1": "1 46435U 97051ABN 25347.84895697  .00031559  00000+0  91413-2 0  9993",
        "tle_line2": "2 46435  86.2839 193.4722 0208315 272.7642 103.0816 14.32399442 79328"
      },
      "geometry": {
        "type": "Point",
        "coordinates": [
          -165.0109915747292,
          33.00705691375208
        ]
      }
    },
    {
      "type": "Feature",
      "properties": {
        "norad_id": 46734,
        "name": "IRIDIUM 33 DEB",
        "group": "iridium-33-debris",
        "lat": -27.36954571715589,
        "lon": -0.4818617054196924,
        "alt_km": 731.0209908355255,
        "timestamp": "2025-12-15T22:44:29.315408+00:00",
        "meta_object_name": "IRIDIUM 33 DEB",
        "meta_object_id": "1997-051ABR",
        "meta_epoch": "2025-12-14T19:23:13.551072",
        "meta_mean_motion": 14.41903662,
        "meta_eccentricity": 0.00382303,
        "meta_inclination": 86.2641,
        "meta_ra_of_asc_node": 1.9566,
        "meta_arg_of_pericenter": 328.7467,
        "meta_mean_anomaly": 211.2629,
        "meta_ephemeris_type": 0,
        "meta_classification_type": "U",
        "meta_norad_cat_id": 46734,
        "meta_element_set_no": 999,
        "meta_rev_at_epoch": 63040,
        "meta_bstar": 0.00093372704,
        "meta_mean_motion_dot": 3.101e-05,
        "meta_mean_motion_ddot": 0,
        "tle_line1": "1 46734U 97051ABR 25348.80779573  .00003101  00000+0  93373-3 0  9996",
        "tle_line2": "2 46734  86.2641   1.9566 0038230 328.7467 211.2629 14.41903662630405"
      },
      "geometry": {
        "type": "Point",
        "coordinates": [
          -0.4818617054196924,
          -27.36954571715589
        ]
      }
    },
    {
      "type": "Feature",
      "properties": {
        "norad_id": 46965,
        "name": "IRIDIUM 33 DEB",
        "group": "iridium-33-debris",
        "lat": -37.60245959905747,
        "lon": -23.55305159882401,
        "alt_km": 685.7945112673488,
        "timestamp": "2025-12-15T22:44:29.315418+00:00",
        "meta_object_name": "IRIDIUM 33 DEB",
        "meta_object_id": "1997-051ABX",
        "meta_epoch": "2025-12-13T10:45:20.165184",
        "meta_mean_motion": 14.60307321,
        "meta_eccentricity": 0.00180716,
        "meta_inclination": 86.336,
        "meta_ra_of_asc_node": 340.3836,
        "meta_arg_of_pericenter": 330.9129,
        "meta_mean_anomaly": 180.178,
        "meta_ephemeris_type": 0,
        "meta_classification_type": "U",
        "meta_norad_cat_id": 46965,
        "meta_element_set_no": 999,
        "meta_rev_at_epoch": 62278,
        "meta_bstar": 0.0013493066,
        "meta_mean_motion_dot": 6.553e-05,
        "meta_mean_motion_ddot": 0,
        "tle_line1": "1 46965U 97051ABX 25347.44815006  .00006553  00000+0  13493-2 0  9991",
        "tle_line2": "2 46965  86.3360 340.3836 0018071 330.9129 180.1780 14.60307321622786"
      },
      "geometry": {
        "type": "Point",
        "coordinates": [
          -23.55305159882401,
          -37.60245959905747
        ]
      }
    },
    {
      "type": "Feature",
      "properties": {
        "norad_id": 46971,
        "name": "IRIDIUM 33 DEB",
        "group": "iridium-33-debris",
        "lat": 60.9045892264913,
        "lon": 144.99349317277148,
        "alt_km": 568.6218937634812,
        "timestamp": "2025-12-15T22:44:29.315429+00:00",
        "meta_object_name": "IRIDIUM 33 DEB",
        "meta_object_id": "1997-051ACD",
        "meta_epoch": "2025-12-14T06:23:56.078592",
        "meta_mean_motion": 14.98150493,
        "meta_eccentricity": 0.00031363,
        "meta_inclination": 86.3369,
        "meta_ra_of_asc_node": 332.3949,
        "meta_arg_of_pericenter": 304.257,
        "meta_mean_anomaly": 114.3941,
        "meta_ephemeris_type": 0,
        "meta_classification_type": "U",
        "meta_norad_cat_id": 46971,
        "meta_element_set_no": 999,
        "meta_rev_at_epoch": 64253,
        "meta_bstar": 0.0030074601,
        "meta_mean_motion_dot": 0.000358,
        "meta_mean_motion_ddot": 0,
        "tle_line1": "1 46971U 97051ACD 25348.26662128  .00035800  00000+0  30075-2 0  9996",
        "tle_line2": "2 46971  86.3369 332.3949 0003136 304.2570 114.3941 14.98150493642538"
      },
      "geometry": {
        "type": "Point",
        "coordinates": [
          144.99349317277148,
          60.9045892264913
        ]
      }
    },
    {
      "type": "Feature",
      "properties": {
        "norad_id": 46974,
        "name": "IRIDIUM 33 DEB",
        "group": "iridium-33-debris",
        "lat": -35.37738815752121,
        "lon": -73.49044742037539,
        "alt_km": 696.7806474044846,
        "timestamp": "2025-12-15T22:44:29.315440+00:00",
        "meta_object_name": "IRIDIUM 33 DEB",
        "meta_object_id": "1997-051ACG",
        "meta_epoch": "2025-12-14T14:09:41.074272",
        "meta_mean_motion": 14.44439168,
        "meta_eccentricity": 0.00956816,
        "meta_inclination": 86.2983,
        "meta_ra_of_asc_node": 104.4675,
        "meta_arg_of_pericenter": 181.0289,
        "meta_mean_anomaly": 179.0732,
        "meta_ephemeris_type": 0,
        "meta_classification_type": "U",
        "meta_norad_cat_id": 46974,
        "meta_element_set_no": 999,
        "meta_rev_at_epoch": 57535,
        "meta_bstar": 0.0034715296,
        "meta_mean_motion_dot": 0.00012692,
        "meta_mean_motion_ddot": 0,
        "tle_line1": "1 46974U 97051ACG 25348.59005873  .00012692  00000+0  34715-2 0  9992",
        "tle_line2": "2 46974  86.2983 104.4675 0095681 181.0289 179.0732 14.44439168575351"
      },
      "geometry": {
        "type": "Point",
        "coordinates": [
          -73.49044742037539,
          -35.37738815752121
        ]
      }
    },
    {
      "type": "Feature",
      "properties": {
        "norad_id": 46979,
        "name": "IRIDIUM 33 DEB",
        "group": "iridium-33-debris",
        "lat": 22.197891728797572,
        "lon": 48.56294885188936,
        "alt_km": 618.0667683032307,
        "timestamp": "2025-12-15T22:44:29.315451+00:00",
        "meta_object_name": "IRIDIUM 33 DEB",
        "meta_object_id": "1997-051ACM",
        "meta_epoch": "2025-12-08T11:38:51.411264",
        "meta_mean_motion": 14.88966671,
        "meta_eccentricity": 0.00280118,
        "meta_inclination": 86.3345,
        "meta_ra_of_asc_node": 50.5282,
        "meta_arg_of_pericenter": 237.8713,
        "meta_mean_anomaly": 121.9794,
        "meta_ephemeris_type": 0,
        "meta_classification_type": "U",
        "meta_norad_cat_id": 46979,
        "meta_element_set_no": 999,
        "meta_rev_at_epoch": 35365,
        "meta_bstar": 0.0048738532,
        "meta_mean_motion_dot": 0.00046401,
        "meta_mean_motion_ddot": 0,
        "tle_line1": "1 46979U 97051ACM 25342.48531726  .00046401  00000+0  48739-2 0  9996",
        "tle_line2": "2 46979  86.3345  50.5282 0028011 237.8713 121.9794 14.88966671353652"
      },
      "geometry": {
        "type": "Point",
        "coordinates": [
          48.56294885188936,
          22.197891728797572
        ]
      }
    }
  ]
}